STARLINK-31493          
1 59329U 24057K   26068.64522443 -.00000589  00000+0 -11900-4 0  9996
2 59329  43.0016 187.2126 0001034 252.6134 107.4605 15.27577663109835
TEVEL2-8                
1 63239U 25052AF  26068.66815442  .00019130  00000+0  69304-3 0  9993
2 63239  97.4055 324.2923 0008031 124.9191 235.2804 15.28392908 54807
